{
  "norad_id": 64131,
  "name": "STARLINK-11720 [DTC]",
  "history": [
    {
      "epoch": "2026-03-28T18:41:56.070816Z",
      "apogee_km": 357.2629090560067,
      "perigee_km": 355.456447667003,
      "latitude_deg": 1.3386213942850959e-05,
      "longitude_deg": 111.90231310807863,
      "height_km": 356.37856225966107,
      "semi_major_axis_km": 6734.496678361505,
      "eccentricity": 0.00013412,
      "inclination_deg": 43.0001,
      "raan_deg": 218.5806,
      "arg_perigee_deg": 254.1586,
      "mean_anomaly_deg": 105.9134,
      "mean_motion_rev_day": 15.70887368
    }
  ]
}